Satellite: OBJECT NB
Catalog number: 42912
Epoch time: 17348.833071
Element set: 999
Inclination: 51.636700 deg
RA of node: 215.295400 deg
Eccentricity: 0.000519
Arg of perigee: 235.213400 deg
Mean anomaly: 124.837100 deg
Mean motion: 15.590574 rev/day
Decay rate: 1.142800e-04 rev/day^2
Epoch rev: 1857

Satellite: OBJECT NC
Catalog number: 42913
Epoch time: 17348.105483
Element set: 999
Inclination: 51.636300 deg
RA of node: 217.951800 deg
Eccentricity: 0.000404
Arg of perigee: 230.686800 deg
Mean anomaly: 129.376800 deg
Mean motion: 15.614097 rev/day
Decay rate: 2.365200e-04 rev/day^2
Epoch rev: 1843

Satellite: OBJECT ND
Catalog number: 42914
Epoch time: 17348.586302
Element set: 999
Inclination: 51.637500 deg
RA of node: 216.675500 deg
Eccentricity: 0.000524
Arg of perigee: 228.170300 deg
Mean anomaly: 131.884300 deg
Mean motion: 15.588061 rev/day
Decay rate: 1.079700e-04 rev/day^2
Epoch rev: 185

Satellite: QIKCOM-1
Catalog number: 42983
Epoch time: 17348.790715
Element set: 999
Inclination: 51.642900 deg
RA of node: 217.790400 deg
Eccentricity: 0.000389
Arg of perigee: 215.613700 deg
Mean anomaly: 264.149900 deg
Mean motion: 15.549147 rev/day
Decay rate: 3.493000e-05 rev/day^2
Epoch rev: 751

Satellite: AO-91
Catalog number: 43017
Epoch time: 17348.383800
Element set: 999
Inclination: 97.693500 deg
RA of node: 282.401500 deg
Eccentricity: 0.026131
Arg of perigee: 152.874500 deg
Mean anomaly: 208.640200 deg
Mean motion: 14.777975 rev/day
Decay rate: 4.730000e-06 rev/day^2
Epoch rev: 38

Satellite: EcAMSat
Catalog number: 43019
Epoch time: 17348.838044
Element set: 999
Inclination: 51.639200 deg
RA of node: 217.612400 deg
Eccentricity: 0.000523
Arg of perigee: 197.938400 deg
Mean anomaly: 162.142300 deg
Mean motion: 15.550793 rev/day
Decay rate: 4.500000e-05 rev/day^2
Epoch rev: 8984

