OBJECT NB
1 42912U 98067NB  17348.83307077  .00011428  00000-0  14987-3 0  9994
2 42912  51.6367 215.2954 0005188 235.2134 124.8371 15.59057388 18576
OBJECT NC
1 42913U 98067NC  17348.10548340  .00023652  00000-0  27698-3 0  9990
2 42913  51.6363 217.9518 0004040 230.6868 129.3768 15.61409713 18438
OBJECT ND
1 42914U 98067ND  17348.58630231  .00010797  00000-0  14330-3 0  9999
2 42914 051.6375 216.6755 0005239 228.1703 131.8843 15.58806092018509
QIKCOM-1
1 42983U 98067NF  17348.79071468  .00003493  00000-0  58359-4 0  9994
2 42983  51.6429 217.7904 0003890 215.6137 264.1499 15.54914720  7516
AO-91
1 43017U 17073E   17348.38379997  .00000473  00000-0  42465-4 0  9990
2 43017 097.6935 282.4015 0261312 152.8745 208.6402 14.77797456003816
EcAMSat
1 43019U 98067NG  17348.83804411  .00004500  00000-0  72691-4 0  9997
2 43019  51.6392 217.6124 0005229 197.9384 162.1423 15.55079275 89841
